[{"OBJECT_NAME":"STARLINK-1954","OBJECT_ID":"2021-009H","EPOCH":"2026-03-09T23:20:25.352160","MEAN_MOTION":15.30849174,"ECCENTRICITY":0.00046184,"INCLINATION":53.0574,"RA_OF_ASC_NODE":8.8654,"ARG_OF_PERICENTER":103.3293,"MEAN_ANOMALY":256.8222,"EPHEMERIS_TYPE":0,"CLASSIFICATION_TYPE":"U","NORAD_CAT_ID":47555,"ELEMENT_SET_NO":999,"REV_AT_EPOCH":28100,"BSTAR":0.0022371791,"MEAN_MOTION_DOT":0.00067883,"MEAN_MOTION_DDOT":0},{"OBJECT_NAME":"STARLINK-2534","OBJECT_ID":"2021-036AM","EPOCH":"2026-03-09T07:49:04.034496","MEAN_MOTION":15.30215725,"ECCENTRICITY":0.00013222,"INCLINATION":53.1609,"RA_OF_ASC_NODE":90.3234,"ARG_OF_PERICENTER":82.9471,"MEAN_ANOMALY":277.168,"EPHEMERIS_TYPE":0,"CLASSIFICATION_TYPE":"U","NORAD_CAT_ID":48311,"ELEMENT_SET_NO":999,"REV_AT_EPOCH":26816,"BSTAR":0.00013616147,"MEAN_MOTION_DOT":3.677e-5,"MEAN_MOTION_DDOT":0}]
